[{"OBJECT_NAME":"STARLINK-34107","OBJECT_ID":"2025-099J","EPOCH":"2026-03-08T08:56:01.140288","MEAN_MOTION":15.27623637,"ECCENTRICITY":0.00013209,"INCLINATION":42.9974,"RA_OF_ASC_NODE":183.7627,"ARG_OF_PERICENTER":227.825,"MEAN_ANOMALY":132.2489,"EPHEMERIS_TYPE":0,"CLASSIFICATION_TYPE":"U","NORAD_CAT_ID":63960,"ELEMENT_SET_NO":999,"REV_AT_EPOCH":4713,"BSTAR":0.0019732509,"MEAN_MOTION_DOT":0.00054513,"MEAN_MOTION_DDOT":0},{"OBJECT_NAME":"OBJECT G","OBJECT_ID":"2025-155G","EPOCH":"2026-03-09T22:09:56.639808","MEAN_MOTION":15.27590702,"ECCENTRICITY":0.00081871,"INCLINATION":97.4488,"RA_OF_ASC_NODE":37.3259,"ARG_OF_PERICENTER":154.1528,"MEAN_ANOMALY":206.0122,"EPHEMERIS_TYPE":0,"CLASSIFICATION_TYPE":"U","NORAD_CAT_ID":64882,"ELEMENT_SET_NO":999,"REV_AT_EPOCH":6559,"BSTAR":0.0004792617,"MEAN_MOTION_DOT":0.00012876,"MEAN_MOTION_DDOT":0}]
